ASTROCAST-0403          
1 55111U 23001DG  26068.82333059  .00013959  00000+0  51317-3 0  9990
2 55111  97.5604 161.3228 0004771 338.0704  22.0330 15.28004949129377
STARLINK-31857          
1 59843U 24097J   26067.98815413 -.00000913  00000+0 -23673-4 0  9990
2 59843  43.0010 277.9601 0001485 256.6613 103.4073 15.27571569101815
